[{"OBJECT_NAME":"IRIDIUM 173","OBJECT_ID":"2019-002D","EPOCH":"2026-03-03T10:01:22.627200","MEAN_MOTION":14.34214624,"ECCENTRICITY":0.00020592,"INCLINATION":86.3957,"RA_OF_ASC_NODE":37.7545,"ARG_OF_PERICENTER":81.1476,"MEAN_ANOMALY":278.9953,"EPHEMERIS_TYPE":0,"CLASSIFICATION_TYPE":"U","NORAD_CAT_ID":43925,"ELEMENT_SET_NO":999,"REV_AT_EPOCH":37379,"BSTAR":-0.00021011565,"MEAN_MOTION_DOT":-5.69e-6,"MEAN_MOTION_DDOT":0},{"OBJECT_NAME":"IRIDIUM 169","OBJECT_ID":"2019-002E","EPOCH":"2026-03-03T12:39:33.924672","MEAN_MOTION":14.3861071,"ECCENTRICITY":0.0001582,"INCLINATION":86.4164,"RA_OF_ASC_NODE":69.3664,"ARG_OF_PERICENTER":74.6903,"MEAN_ANOMALY":285.447,"EPHEMERIS_TYPE":0,"CLASSIFICATION_TYPE":"U","NORAD_CAT_ID":43926,"ELEMENT_SET_NO":999,"REV_AT_EPOCH":37503,"BSTAR":9.9375e-5,"MEAN_MOTION_DOT":3.24e-6,"MEAN_MOTION_DDOT":0},{"OBJECT_NAME":"IRIDIUM 172","OBJECT_ID":"2019-002F","EPOCH":"2026-03-03T14:53:38.911200","MEAN_MOTION":14.34217975,"ECCENTRICITY":0.0002354,"INCLINATION":86.3963,"RA_OF_ASC_NODE":37.6773,"ARG_OF_PERICENTER":86.8167,"MEAN_ANOMALY":273.3299,"EPHEMERIS_TYPE":0,"CLASSIFICATION_TYPE":"U","NORAD_CAT_ID":43927,"ELEMENT_SET_NO":999,"REV_AT_EPOCH":37383,"BSTAR":2.2798e-5,"MEAN_MOTION_DOT":8.4e-7,"MEAN_MOTION_DDOT":0},{"OBJECT_NAME":"IRIDIUM 175","OBJECT_ID":"2019-002G","EPOCH":"2026-03-03T16:02:39.069600","MEAN_MOTION":14.72257274,"ECCENTRICITY":0.0002244,"INCLINATION":86.1546,"RA_OF_ASC_NODE":335.5155,"ARG_OF_PERICENTER":112.7191,"MEAN_ANOMALY":247.4263,"EPHEMERIS_TYPE":0,"CLASSIFICATION_TYPE":"U","NORAD_CAT_ID":43928,"ELEMENT_SET_NO":999,"REV_AT_EPOCH":38371,"BSTAR":0.0002079,"MEAN_MOTION_DOT":1.336e-5,"MEAN_MOTION_DDOT":0},{"OBJECT_NAME":"IRIDIUM 171","OBJECT_ID":"2019-002H","EPOCH":"2026-03-03T19:27:38.886336","MEAN_MOTION":14.34217664,"ECCENTRICITY":0.0002031,"INCLINATION":86.397,"RA_OF_ASC_NODE":37.8924,"ARG_OF_PERICENTER":91.2495,"MEAN_ANOMALY":268.8933,"EPHEMERIS_TYPE":0,"CLASSIFICATION_TYPE":"U","NORAD_CAT_ID":43929,"ELEMENT_SET_NO":999,"REV_AT_EPOCH":37385,"BSTAR":-6.6804e-7,"MEAN_MOTION_DOT":1.8e-7,"MEAN_MOTION_DDOT":0},{"OBJECT_NAME":"IRIDIUM 170","OBJECT_ID":"2019-002J","EPOCH":"2026-03-03T11:24:33.092064","MEAN_MOTION":14.72256676,"ECCENTRICITY":0.00026134,"INCLINATION":86.6083,"RA_OF_ASC_NODE":37.7241,"ARG_OF_PERICENTER":91.363,"MEAN_ANOMALY":268.7886,"EPHEMERIS_TYPE":0,"CLASSIFICATION_TYPE":"U","NORAD_CAT_ID":43930,"ELEMENT_SET_NO":999,"REV_AT_EPOCH":38370,"BSTAR":0.00021129942,"MEAN_MOTION_DOT":1.357e-5,"MEAN_MOTION_DDOT":0},{"OBJECT_NAME":"IRIDIUM 167","OBJECT_ID":"2019-002K","EPOCH":"2026-03-03T10:56:10.838400","MEAN_MOTION":14.34217917,"ECCENTRICITY":0.0001845,"INCLINATION":86.396,"RA_OF_ASC_NODE":37.7677,"ARG_OF_PERICENTER":90.0945,"MEAN_ANOMALY":270.0462,"EPHEMERIS_TYPE":0,"CLASSIFICATION_TYPE":"U","NORAD_CAT_ID":43931,"ELEMENT_SET_NO":999,"REV_AT_EPOCH":37380,"BSTAR":4.67751e-7,"MEAN_MOTION_DOT":2.1e-7,"MEAN_MOTION_DDOT":0},{"OBJECT_NAME":"IRIDIUM 181","OBJECT_ID":"2023-068S","EPOCH":"2026-03-03T14:05:27.320064","MEAN_MOTION":14.43314198,"ECCENTRICITY":0.0002601,"INCLINATION":86.4461,"RA_OF_ASC_NODE":100.9529,"ARG_OF_PERICENTER":98.4584,"MEAN_ANOMALY":261.6911,"EPHEMERIS_TYPE":0,"CLASSIFICATION_TYPE":"U","NORAD_CAT_ID":56726,"ELEMENT_SET_NO":999,"REV_AT_EPOCH":14720,"BSTAR":0.00011734,"MEAN_MOTION_DOT":4.15e-6,"MEAN_MOTION_DDOT":0},{"OBJECT_NAME":"IRIDIUM 177","OBJECT_ID":"2023-068T","EPOCH":"2026-03-03T09:22:50.221056","MEAN_MOTION":14.80238527,"ECCENTRICITY":0.00023807,"INCLINATION":86.1994,"RA_OF_ASC_NODE":19.0115,"ARG_OF_PERICENTER":80.5206,"MEAN_ANOMALY":279.6284,"EPHEMERIS_TYPE":0,"CLASSIFICATION_TYPE":"U","NORAD_CAT_ID":56727,"ELEMENT_SET_NO":999,"REV_AT_EPOCH":15071,"BSTAR":0.00025584574,"MEAN_MOTION_DOT":1.971e-5,"MEAN_MOTION_DDOT":0},{"OBJECT_NAME":"IRIDIUM 174","OBJECT_ID":"2023-068U","EPOCH":"2026-03-03T11:06:45.659808","MEAN_MOTION":14.7225932,"ECCENTRICITY":0.00026028,"INCLINATION":86.609,"RA_OF_ASC_NODE":37.8661,"ARG_OF_PERICENTER":83.4423,"MEAN_ANOMALY":276.709,"EPHEMERIS_TYPE":0,"CLASSIFICATION_TYPE":"U","NORAD_CAT_ID":56728,"ELEMENT_SET_NO":999,"REV_AT_EPOCH":15046,"BSTAR":0.00022286422,"MEAN_MOTION_DOT":1.43e-5,"MEAN_MOTION_DDOT":0},{"OBJECT_NAME":"IRIDIUM 178","OBJECT_ID":"2023-068V","EPOCH":"2026-03-03T12:21:49.992480","MEAN_MOTION":14.80228903,"ECCENTRICITY":0.000285,"INCLINATION":86.6485,"RA_OF_ASC_NODE":69.5211,"ARG_OF_PERICENTER":90.1609,"MEAN_ANOMALY":269.9939,"EPHEMERIS_TYPE":0,"CLASSIFICATION_TYPE":"U","NORAD_CAT_ID":56729,"ELEMENT_SET_NO":999,"REV_AT_EPOCH":15073,"BSTAR":9.129e-5,"MEAN_MOTION_DOT":7.2e-6,"MEAN_MOTION_DDOT":0},{"OBJECT_NAME":"IRIDIUM 179","OBJECT_ID":"2023-068W","EPOCH":"2026-03-03T12:14:06.308736","MEAN_MOTION":14.80239105,"ECCENTRICITY":0.00022553,"INCLINATION":86.6717,"RA_OF_ASC_NODE":78.1977,"ARG_OF_PERICENTER":93.4664,"MEAN_ANOMALY":266.6816,"EPHEMERIS_TYPE":0,"CLASSIFICATION_TYPE":"U","NORAD_CAT_ID":56730,"ELEMENT_SET_NO":999,"REV_AT_EPOCH":15073,"BSTAR":8.4514755e-5,"MEAN_MOTION_DOT":6.68e-6,"MEAN_MOTION_DDOT":0}]
