IRIDIUM 173             
1 43925U 19002D   26062.41762300 -.00000569  00000+0 -21012-3 0  9994
2 43925  86.3957  37.7545 0002059  81.1476 278.9953 14.34214624373790
IRIDIUM 169             
1 43926U 19002E   26062.52747598  .00000324  00000+0  99375-4 0  9994
2 43926  86.4164  69.3664 0001582  74.6903 285.4470 14.38610710375033
IRIDIUM 172             
1 43927U 19002F   26062.62058925  .00000084  00000+0  22798-4 0  9993
2 43927  86.3963  37.6773 0002354  86.8167 273.3299 14.34217975373837
IRIDIUM 175             
1 43928U 19002G   26062.66850775  .00001336  00000+0  20790-3 0  9991
2 43928  86.1546 335.5155 0002244 112.7191 247.4263 14.72257274383710
IRIDIUM 171             
1 43929U 19002H   26062.81086674  .00000018  00000+0 -66804-6 0  9994
2 43929  86.3970  37.8924 0002031  91.2495 268.8933 14.34217664373854
IRIDIUM 170             
1 43930U 19002J   26062.47538301  .00001357  00000+0  21130-3 0  9993
2 43930  86.6083  37.7241 0002613  91.3630 268.7886 14.72256676383702
IRIDIUM 167             
1 43931U 19002K   26062.45568100  .00000021  00000+0  46775-6 0  9994
2 43931  86.3960  37.7677 0001845  90.0945 270.0462 14.34217917373807
IRIDIUM 181             
1 56726U 23068S   26062.58712176  .00000415  00000+0  11734-3 0  9996
2 56726  86.4461 100.9529 0002601  98.4584 261.6911 14.43314198147208
IRIDIUM 177             
1 56727U 23068T   26062.39085904  .00001971  00000+0  25585-3 0  9995
2 56727  86.1994  19.0115 0002380  80.5206 279.6284 14.80238527150719
IRIDIUM 174             
1 56728U 23068U   26062.46302847  .00001430  00000+0  22286-3 0  9997
2 56728  86.6090  37.8661 0002602  83.4423 276.7090 14.72259320150466
IRIDIUM 178             
1 56729U 23068V   26062.51516195  .00000720  00000+0  91290-4 0  9990
2 56729  86.6485  69.5211 0002850  90.1609 269.9939 14.80228903150732
IRIDIUM 179             
1 56730U 23068W   26062.50979524  .00000668  00000+0  84515-4 0  9993
2 56730  86.6717  78.1977 0002255  93.4664 266.6816 14.80239105150737
